id,address_line1,address_line2,city,country,created_at,latitude,location_type,longitude,postal_code,province,updated_at
1,755 Main Rd,Unit #87-759,Bangkok,Thailand,2021-07-03,13.607503,OTHER,100.410012,101161,Bangkok,2021-09-22
2,842 Main Rd,Unit #41-411,Penang,Malaysia,2019-08-18,5.343923,GARAGE,100.297285,79403,Penang,2019-12-23
3,750 River Rd,Unit #09-779,Jakarta,Indonesia,2019-11-19,-6.282622,OTHER,106.951204,813035,DKI Jakarta,2020-01-11
4,828 Hill Rd,Unit #71-101,Manila,Philippines,2019-11-05,14.615657,ACCIDENT_SITE,121.074897,693823,Metro Manila,2020-06-28
5,551 Orchard Rd,Unit #65-272,Singapore,Singapore,2020-02-14,1.334571,INSURED_ADDRESS,104.099227,988593,Central,2020-04-01
6,822 Beach Rd,Unit #95-831,Phuket,Thailand,2022-09-22,7.807436,INSURED_ADDRESS,98.420969,289766,Phuket,2023-04-30
7,441 Hill Rd,Unit #75-622,Phuket,Thailand,2022-03-21,7.964381,GARAGE,98.200122,497575,Phuket,2022-07-16
8,220 Main Rd,Unit #54-418,Kuala Lumpur,Malaysia,2020-09-17,3.080166,GARAGE,101.645759,578969,Kuala Lumpur,2021-09-23
9,118 Park Rd,Unit #28-477,Singapore,Singapore,2024-04-23,1.375334,GARAGE,103.719272,814150,Central,2025-04-10
10,738 River Rd,Unit #63-569,Penang,Malaysia,2019-12-17,5.30203,INSURED_ADDRESS,100.484419,734156,Penang,2020-04-28
11,255 Main Rd,Unit #72-783,Kuala Lumpur,Malaysia,2022-05-29,3.07984,BRANCH_OFFICE,101.69071,645770,Kuala Lumpur,2022-07-21
12,842 Market Rd,Unit #74-042,Singapore,Singapore,2019-03-26,1.242832,INSURED_ADDRESS,104.080956,503355,Central,2020-03-14
13,901 Orchard Rd,Unit #09-283,Johor Bahru,Malaysia,2024-09-12,1.505127,BRANCH_OFFICE,103.676717,366385,Johor,2025-10-09
14,816 Main Rd,Unit #38-368,Kuala Lumpur,Malaysia,2019-07-08,3.1888,GARAGE,101.775856,461607,Kuala Lumpur,2019-12-31
15,514 Market Rd,Unit #22-264,Phuket,Thailand,2023-02-07,7.852692,BRANCH_OFFICE,98.239648,855664,Phuket,2023-11-15
16,94 Beach Rd,Unit #28-658,Singapore,Singapore,2020-05-15,1.319535,OTHER,103.694904,32394,Central,2021-01-12
17,667 Hill Rd,Unit #71-739,Johor Bahru,Malaysia,2020-04-13,1.500555,INSURED_ADDRESS,103.68604,460961,Johor,2021-03-24
18,649 Main Rd,Unit #12-765,Kuala Lumpur,Malaysia,2020-08-04,3.163264,OTHER,101.650196,235583,Kuala Lumpur,2021-08-28
19,821 Park Rd,Unit #59-852,Phuket,Thailand,2022-08-23,7.886855,GARAGE,98.32151,102410,Phuket,2022-11-28
20,106 Hill Rd,Unit #44-732,Chiang Mai,Thailand,2019-09-11,18.821001,ACCIDENT_SITE,99.000273,539057,Chiang Mai,2020-05-08
21,421 Market Rd,Unit #87-737,Surabaya,Indonesia,2023-11-28,-7.188191,INSURED_ADDRESS,112.649662,475776,East Java,2023-12-30
22,114 Hill Rd,Unit #37-244,Kuala Lumpur,Malaysia,2024-12-01,3.159761,GARAGE,101.731809,137767,Kuala Lumpur,2025-07-15
23,340 Market Rd,Unit #16-819,Jakarta,Indonesia,2019-07-15,-6.214167,GARAGE,106.944855,468176,DKI Jakarta,2020-06-24
24,121 Market Rd,Unit #34-721,Singapore,Singapore,2023-05-05,1.403919,BRANCH_OFFICE,103.849522,234993,Central,2024-02-26
25,641 Market Rd,Unit #79-547,Bangkok,Thailand,2022-01-29,13.675182,ACCIDENT_SITE,100.554023,536986,Bangkok,2022-04-13
26,221 Park Rd,Unit #46-050,Singapore,Singapore,2024-02-16,1.242512,ACCIDENT_SITE,103.796621,305023,Central,2024-06-28
27,486 Market Rd,Unit #84-802,Bangkok,Thailand,2019-04-20,13.893969,OTHER,100.533481,615693,Bangkok,2020-02-29
28,207 Hill Rd,Unit #69-278,Chiang Mai,Thailand,2024-05-16,18.884802,OTHER,99.031194,739988,Chiang Mai,2024-09-12
29,877 Beach Rd,Unit #52-847,Manila,Philippines,2020-12-19,14.641945,BRANCH_OFFICE,121.051457,550310,Metro Manila,2021-11-06
30,136 Park Rd,Unit #54-468,Bangkok,Thailand,2019-08-16,13.869667,OTHER,100.478193,70541,Bangkok,2020-04-14
31,223 Hill Rd,Unit #08-144,Jakarta,Indonesia,2021-08-17,-6.077838,OTHER,106.760906,313314,DKI Jakarta,2022-05-30
32,478 Park Rd,Unit #84-368,Phuket,Thailand,2022-03-05,8.074538,GARAGE,98.365624,284267,Phuket,2022-09-25
33,197 Park Rd,Unit #68-259,Kuala Lumpur,Malaysia,2020-09-01,3.071403,GARAGE,101.574078,290310,Kuala Lumpur,2021-01-12
34,31 Beach Rd,Unit #35-803,Surabaya,Indonesia,2023-06-13,-7.196199,BRANCH_OFFICE,112.886458,524435,East Java,2023-12-07
35,632 Orchard Rd,Unit #59-110,Bangkok,Thailand,2024-07-23,13.708337,INSURED_ADDRESS,100.677689,329457,Bangkok,2025-06-02
36,340 Hill Rd,Unit #56-109,Surabaya,Indonesia,2023-06-25,-7.341141,ACCIDENT_SITE,112.895082,113396,East Java,2024-07-24
37,334 Orchard Rd,Unit #59-117,Surabaya,Indonesia,2021-02-04,-7.32965,GARAGE,112.861594,713281,East Java,2021-08-20
38,844 Market Rd,Unit #70-843,Penang,Malaysia,2022-01-02,5.402161,ACCIDENT_SITE,100.371814,806922,Penang,2022-10-17
39,996 River Rd,Unit #82-681,Surabaya,Indonesia,2020-01-17,-7.349505,GARAGE,112.832241,901401,East Java,2021-02-04
40,793 Hill Rd,Unit #97-896,Bangkok,Thailand,2020-07-15,13.694005,INSURED_ADDRESS,100.652396,682741,Bangkok,2021-02-05
41,730 Park Rd,Unit #99-426,Singapore,Singapore,2022-03-19,1.45717,BRANCH_OFFICE,103.798988,745901,Central,2023-02-13
42,48 River Rd,Unit #47-393,Jakarta,Indonesia,2019-02-20,-6.077766,INSURED_ADDRESS,106.601027,197654,DKI Jakarta,2019-07-05
43,87 Park Rd,Unit #13-518,Penang,Malaysia,2024-02-21,5.382611,INSURED_ADDRESS,100.468673,678169,Penang,2025-03-19
44,67 Orchard Rd,Unit #83-455,Bangkok,Thailand,2019-11-04,13.774697,INSURED_ADDRESS,100.403528,106446,Bangkok,2019-11-25
45,243 Park Rd,Unit #41-826,Chiang Mai,Thailand,2020-12-12,18.887041,GARAGE,99.098308,968377,Chiang Mai,2021-03-22
46,328 Orchard Rd,Unit #82-907,Johor Bahru,Malaysia,2021-09-01,1.464064,ACCIDENT_SITE,103.749069,871574,Johor,2022-03-07
47,100 Main Rd,Unit #27-175,Singapore,Singapore,2024-05-21,1.326901,GARAGE,103.747275,95916,Central,2024-09-10
48,116 River Rd,Unit #20-152,Singapore,Singapore,2024-11-10,1.416638,OTHER,103.911529,626493,Central,2025-06-22
49,844 River Rd,Unit #65-407,Singapore,Singapore,2022-01-27,1.449508,ACCIDENT_SITE,103.952317,724263,Central,2022-08-13
50,414 Beach Rd,Unit #41-698,Kuala Lumpur,Malaysia,2019-08-21,3.153459,INSURED_ADDRESS,101.610076,766320,Kuala Lumpur,2020-07-03
51,780 Hill Rd,Unit #22-591,Chiang Mai,Thailand,2022-01-25,18.8269,INSURED_ADDRESS,98.900943,523358,Chiang Mai,2022-05-22
52,719 Orchard Rd,Unit #27-712,Phuket,Thailand,2021-11-01,7.933294,ACCIDENT_SITE,98.237079,325743,Phuket,2022-07-11
53,410 River Rd,Unit #35-856,Bangkok,Thailand,2020-04-11,13.711787,BRANCH_OFFICE,100.437089,733415,Bangkok,2020-11-12
54,414 River Rd,Unit #05-571,Chiang Mai,Thailand,2019-03-14,18.723741,OTHER,98.999475,10177,Chiang Mai,2019-05-15
55,624 Beach Rd,Unit #98-255,Surabaya,Indonesia,2023-04-25,-7.228768,GARAGE,112.696553,427196,East Java,2023-12-05
56,890 Hill Rd,Unit #57-850,Penang,Malaysia,2021-04-11,5.31076,INSURED_ADDRESS,100.423101,965762,Penang,2022-03-04
57,920 Beach Rd,Unit #25-329,Penang,Malaysia,2019-06-29,5.460563,OTHER,100.333667,96345,Penang,2019-12-07
58,6 Park Rd,Unit #77-404,Singapore,Singapore,2020-05-19,1.358381,OTHER,103.877535,584122,Central,2020-06-19
59,752 Beach Rd,Unit #10-745,Manila,Philippines,2021-03-15,14.714678,ACCIDENT_SITE,120.928,945440,Metro Manila,2021-08-06
60,258 River Rd,Unit #29-529,Chiang Mai,Thailand,2019-11-15,18.817536,BRANCH_OFFICE,99.079645,380040,Chiang Mai,2020-08-15
61,430 Hill Rd,Unit #20-621,Bangkok,Thailand,2024-08-27,13.604969,ACCIDENT_SITE,100.509085,196040,Bangkok,2025-08-22
62,236 River Rd,Unit #90-973,Phuket,Thailand,2020-05-02,8.020735,INSURED_ADDRESS,98.4565,115149,Phuket,2021-05-29
63,5 Market Rd,Unit #23-417,Surabaya,Indonesia,2023-07-13,-7.157389,OTHER,112.736428,121636,East Java,2024-05-12
64,188 Hill Rd,Unit #66-287,Johor Bahru,Malaysia,2022-01-30,1.539812,BRANCH_OFFICE,103.776197,242881,Johor,2022-10-18
65,488 Hill Rd,Unit #81-099,Phuket,Thailand,2021-06-01,7.829692,BRANCH_OFFICE,98.249003,790762,Phuket,2021-10-19
66,235 Orchard Rd,Unit #95-291,Surabaya,Indonesia,2023-05-16,-7.318945,BRANCH_OFFICE,112.79645,666912,East Java,2023-10-31
67,193 Hill Rd,Unit #09-187,Manila,Philippines,2022-01-06,14.662114,INSURED_ADDRESS,121.006389,313662,Metro Manila,2022-08-15
68,242 Beach Rd,Unit #56-333,Jakarta,Indonesia,2021-06-11,-6.191872,ACCIDENT_SITE,106.620835,185490,DKI Jakarta,2021-08-17
69,158 Park Rd,Unit #37-331,Penang,Malaysia,2024-07-30,5.46381,BRANCH_OFFICE,100.256961,682036,Penang,2025-05-18
70,925 Market Rd,Unit #71-333,Penang,Malaysia,2023-12-20,5.367503,GARAGE,100.247453,442373,Penang,2024-06-27
71,797 Beach Rd,Unit #49-056,Bangkok,Thailand,2019-02-16,13.860936,GARAGE,100.390687,559855,Bangkok,2020-01-16
72,758 Main Rd,Unit #32-972,Chiang Mai,Thailand,2019-12-18,18.731198,OTHER,99.045697,981746,Chiang Mai,2020-02-23
73,912 Hill Rd,Unit #04-967,Penang,Malaysia,2021-11-21,5.355176,OTHER,100.218603,303804,Penang,2022-06-17
74,666 Market Rd,Unit #24-873,Johor Bahru,Malaysia,2024-04-04,1.463409,BRANCH_OFFICE,103.769228,525318,Johor,2025-04-13
75,93 Market Rd,Unit #42-709,Johor Bahru,Malaysia,2021-04-07,1.452491,INSURED_ADDRESS,103.690736,763270,Johor,2021-12-05
76,677 Beach Rd,Unit #90-610,Phuket,Thailand,2022-03-10,8.098121,OTHER,98.248401,835551,Phuket,2023-01-26
77,332 Hill Rd,Unit #01-117,Manila,Philippines,2024-09-06,14.697549,GARAGE,120.961555,367943,Metro Manila,2025-06-24
78,795 Market Rd,Unit #19-788,Jakarta,Indonesia,2024-11-14,-6.197965,ACCIDENT_SITE,106.793389,872074,DKI Jakarta,2025-05-01
79,777 Beach Rd,Unit #69-081,Surabaya,Indonesia,2021-03-22,-7.278875,BRANCH_OFFICE,112.6997,605370,East Java,2022-04-01
80,112 Beach Rd,Unit #77-790,Johor Bahru,Malaysia,2019-10-13,1.467617,BRANCH_OFFICE,103.791177,353312,Johor,2020-08-24
81,87 Orchard Rd,Unit #83-826,Kuala Lumpur,Malaysia,2023-11-24,3.194268,BRANCH_OFFICE,101.671675,911935,Kuala Lumpur,2024-02-11
82,259 Orchard Rd,Unit #79-288,Manila,Philippines,2019-11-11,14.62119,GARAGE,120.925364,909529,Metro Manila,2020-04-11
83,346 Beach Rd,Unit #89-185,Johor Bahru,Malaysia,2021-03-09,1.527315,GARAGE,103.749818,584213,Johor,2021-12-10
84,153 Beach Rd,Unit #82-001,Surabaya,Indonesia,2019-03-18,-7.204491,ACCIDENT_SITE,112.833171,706889,East Java,2019-12-07
85,892 Hill Rd,Unit #69-153,Jakarta,Indonesia,2024-02-21,-6.057869,OTHER,106.866927,254303,DKI Jakarta,2025-02-12
86,961 Orchard Rd,Unit #79-709,Kuala Lumpur,Malaysia,2023-08-15,3.177965,ACCIDENT_SITE,101.680772,635236,Kuala Lumpur,2023-12-25
87,222 Park Rd,Unit #59-183,Johor Bahru,Malaysia,2023-11-21,1.508509,BRANCH_OFFICE,103.610868,401627,Johor,2024-02-13
88,766 Park Rd,Unit #04-466,Singapore,Singapore,2024-02-25,1.339946,BRANCH_OFFICE,103.752418,819327,Central,2024-12-23
89,401 Orchard Rd,Unit #37-982,Bangkok,Thailand,2019-12-24,13.656506,ACCIDENT_SITE,100.653592,124677,Bangkok,2020-02-13
90,325 Market Rd,Unit #19-382,Chiang Mai,Thailand,2019-05-23,18.736899,BRANCH_OFFICE,99.012497,576091,Chiang Mai,2020-05-07
91,426 Hill Rd,Unit #57-296,Johor Bahru,Malaysia,2023-12-25,1.53743,INSURED_ADDRESS,103.61752,854809,Johor,2025-01-17
92,168 Main Rd,Unit #35-370,Kuala Lumpur,Malaysia,2020-07-08,3.113936,BRANCH_OFFICE,101.769579,677153,Kuala Lumpur,2021-01-16
93,20 Hill Rd,Unit #62-776,Jakarta,Indonesia,2020-04-02,-6.260935,BRANCH_OFFICE,106.631442,54582,DKI Jakarta,2020-05-21
94,395 Market Rd,Unit #59-615,Penang,Malaysia,2024-07-15,5.444427,GARAGE,100.224674,730420,Penang,2024-09-22
95,770 Park Rd,Unit #99-505,Kuala Lumpur,Malaysia,2019-11-10,3.110551,BRANCH_OFFICE,101.705808,221740,Kuala Lumpur,2020-10-23
96,346 Orchard Rd,Unit #03-552,Surabaya,Indonesia,2022-06-02,-7.333012,GARAGE,112.806397,49193,East Java,2022-08-09
97,960 Beach Rd,Unit #69-829,Surabaya,Indonesia,2024-03-29,-7.250159,OTHER,112.798242,904199,East Java,2024-08-23
98,853 Park Rd,Unit #95-400,Jakarta,Indonesia,2022-07-07,-6.120054,INSURED_ADDRESS,106.909276,990942,DKI Jakarta,2023-01-01
99,712 Main Rd,Unit #98-054,Manila,Philippines,2022-08-31,14.626584,INSURED_ADDRESS,120.970371,670766,Metro Manila,2023-04-30
100,812 Orchard Rd,Unit #04-298,Manila,Philippines,2021-01-08,14.681677,GARAGE,120.937873,256924,Metro Manila,2021-08-15
101,194 Orchard Rd,Unit #07-236,Johor Bahru,Malaysia,2023-12-08,1.526368,INSURED_ADDRESS,103.630253,47604,Johor,2024-01-14
102,183 Orchard Rd,Unit #99-887,Penang,Malaysia,2023-06-22,5.49038,BRANCH_OFFICE,100.314417,103520,Penang,2023-11-09
103,17 Main Rd,Unit #95-678,Surabaya,Indonesia,2019-12-01,-7.187435,BRANCH_OFFICE,112.706637,198274,East Java,2020-08-24
104,342 Main Rd,Unit #14-646,Jakarta,Indonesia,2023-05-24,-6.211551,BRANCH_OFFICE,106.93178,445878,DKI Jakarta,2023-06-29
105,827 Main Rd,Unit #44-441,Chiang Mai,Thailand,2024-08-24,18.835386,ACCIDENT_SITE,98.934943,657561,Chiang Mai,2024-09-19
106,454 Orchard Rd,Unit #99-011,Johor Bahru,Malaysia,2023-01-21,1.545184,OTHER,103.703231,999481,Johor,2023-02-15
107,348 Orchard Rd,Unit #96-596,Bangkok,Thailand,2019-01-22,13.734621,OTHER,100.528974,759361,Bangkok,2019-09-21
108,811 Orchard Rd,Unit #19-803,Manila,Philippines,2024-06-13,14.747755,OTHER,120.960652,452244,Metro Manila,2024-07-07
109,425 Main Rd,Unit #68-325,Johor Bahru,Malaysia,2023-11-26,1.536197,BRANCH_OFFICE,103.604653,279670,Johor,2024-03-07
110,62 River Rd,Unit #35-613,Johor Bahru,Malaysia,2020-11-16,1.546111,GARAGE,103.724146,890266,Johor,2020-11-26
111,506 Market Rd,Unit #05-288,Bangkok,Thailand,2021-06-24,13.844884,BRANCH_OFFICE,100.550095,958444,Bangkok,2021-10-31
112,254 Main Rd,Unit #61-245,Singapore,Singapore,2022-10-01,1.339992,GARAGE,104.00403,882957,Central,2023-02-16
113,983 Beach Rd,Unit #97-367,Singapore,Singapore,2023-11-21,1.235123,GARAGE,103.755833,622018,Central,2024-08-19
114,868 Park Rd,Unit #32-183,Manila,Philippines,2020-12-14,14.543537,INSURED_ADDRESS,121.077076,32536,Metro Manila,2021-06-15
115,884 Orchard Rd,Unit #51-224,Surabaya,Indonesia,2021-04-11,-7.220053,GARAGE,112.66216,455668,East Java,2021-12-08
116,602 Hill Rd,Unit #71-776,Jakarta,Indonesia,2021-08-15,-6.082999,BRANCH_OFFICE,106.68395,767607,DKI Jakarta,2022-05-16
117,161 Main Rd,Unit #17-550,Penang,Malaysia,2023-08-10,5.302209,BRANCH_OFFICE,100.298032,511482,Penang,2024-03-07
118,259 Orchard Rd,Unit #65-046,Penang,Malaysia,2024-01-22,5.453308,BRANCH_OFFICE,100.297804,38015,Penang,2024-04-25
119,576 Beach Rd,Unit #25-640,Singapore,Singapore,2022-09-01,1.32392,INSURED_ADDRESS,103.653842,989713,Central,2023-02-23
120,658 Main Rd,Unit #31-946,Chiang Mai,Thailand,2023-03-20,18.799745,OTHER,98.940402,475280,Chiang Mai,2023-07-12
121,391 River Rd,Unit #11-778,Kuala Lumpur,Malaysia,2019-03-23,3.213921,GARAGE,101.74839,634094,Kuala Lumpur,2020-04-26
122,932 Orchard Rd,Unit #55-170,Phuket,Thailand,2019-11-26,8.011821,BRANCH_OFFICE,98.492244,275154,Phuket,2020-08-27
123,533 Hill Rd,Unit #35-955,Bangkok,Thailand,2023-03-19,13.663321,BRANCH_OFFICE,100.616715,506219,Bangkok,2024-01-31
124,785 Market Rd,Unit #29-737,Phuket,Thailand,2022-08-30,8.098008,GARAGE,98.208767,708281,Phuket,2023-03-24
125,830 Market Rd,Unit #20-848,Jakarta,Indonesia,2023-03-23,-6.151492,INSURED_ADDRESS,106.881656,899265,DKI Jakarta,2023-05-02
126,886 Hill Rd,Unit #84-392,Phuket,Thailand,2020-01-03,8.032755,GARAGE,98.497349,673049,Phuket,2020-09-06
127,552 Park Rd,Unit #27-705,Chiang Mai,Thailand,2022-12-13,18.804533,ACCIDENT_SITE,99.097204,704804,Chiang Mai,2023-10-29
128,278 Park Rd,Unit #13-919,Bangkok,Thailand,2022-03-01,13.758688,ACCIDENT_SITE,100.580182,189041,Bangkok,2022-12-18
129,436 Beach Rd,Unit #69-768,Phuket,Thailand,2019-01-30,7.80417,GARAGE,98.257055,266089,Phuket,2020-02-09
130,860 River Rd,Unit #21-144,Penang,Malaysia,2023-12-02,5.462309,GARAGE,100.232608,793381,Penang,2024-11-12
131,437 Main Rd,Unit #79-205,Kuala Lumpur,Malaysia,2021-02-26,3.130257,ACCIDENT_SITE,101.618465,916336,Kuala Lumpur,2021-05-21
132,207 Park Rd,Unit #93-158,Penang,Malaysia,2024-04-26,5.423802,ACCIDENT_SITE,100.290443,144041,Penang,2025-05-30
133,86 Beach Rd,Unit #71-271,Singapore,Singapore,2023-02-20,1.382161,INSURED_ADDRESS,103.916341,438178,Central,2023-08-15
134,255 Hill Rd,Unit #11-275,Singapore,Singapore,2019-06-29,1.410861,INSURED_ADDRESS,103.922241,994191,Central,2019-09-14
135,883 Orchard Rd,Unit #84-151,Johor Bahru,Malaysia,2019-11-09,1.516173,GARAGE,103.786576,164958,Johor,2019-11-20
136,56 Beach Rd,Unit #14-679,Phuket,Thailand,2023-10-06,8.019924,OTHER,98.408837,87353,Phuket,2024-04-23
137,246 Market Rd,Unit #21-555,Bangkok,Thailand,2022-10-06,13.623343,ACCIDENT_SITE,100.541276,78492,Bangkok,2022-10-30
138,147 Hill Rd,Unit #40-561,Kuala Lumpur,Malaysia,2020-02-03,3.16338,ACCIDENT_SITE,101.798601,533147,Kuala Lumpur,2020-02-20
139,720 Beach Rd,Unit #61-118,Chiang Mai,Thailand,2024-06-14,18.712894,GARAGE,98.968485,486660,Chiang Mai,2024-10-10
140,993 Park Rd,Unit #13-038,Johor Bahru,Malaysia,2024-01-15,1.544332,INSURED_ADDRESS,103.771453,791931,Johor,2024-12-17
141,991 Hill Rd,Unit #60-423,Bangkok,Thailand,2020-05-24,13.658668,BRANCH_OFFICE,100.48783,17974,Bangkok,2020-11-29
142,799 Hill Rd,Unit #49-789,Jakarta,Indonesia,2021-10-01,-6.210923,GARAGE,106.814167,701281,DKI Jakarta,2022-10-17
143,281 River Rd,Unit #26-977,Kuala Lumpur,Malaysia,2020-06-02,3.093952,ACCIDENT_SITE,101.731936,375484,Kuala Lumpur,2020-10-27
144,623 Hill Rd,Unit #86-077,Surabaya,Indonesia,2022-02-12,-7.307565,OTHER,112.665239,946026,East Java,2023-02-23
145,889 Main Rd,Unit #34-905,Chiang Mai,Thailand,2019-01-21,18.86323,ACCIDENT_SITE,99.007512,126185,Chiang Mai,2020-01-18
146,473 Main Rd,Unit #96-113,Manila,Philippines,2020-02-23,14.605773,INSURED_ADDRESS,121.037253,27393,Metro Manila,2020-05-18
147,698 Main Rd,Unit #22-192,Manila,Philippines,2020-11-28,14.713141,GARAGE,121.037587,953581,Metro Manila,2021-05-18
148,604 River Rd,Unit #36-317,Manila,Philippines,2022-09-18,14.727582,INSURED_ADDRESS,120.969769,53096,Metro Manila,2023-04-16
149,313 Main Rd,Unit #39-581,Jakarta,Indonesia,2021-03-28,-6.224994,BRANCH_OFFICE,106.766525,582344,DKI Jakarta,2021-09-08
150,705 Orchard Rd,Unit #15-069,Manila,Philippines,2024-06-09,14.679786,ACCIDENT_SITE,121.087306,170455,Metro Manila,2025-05-04
151,179 Beach Rd,Unit #20-361,Chiang Mai,Thailand,2024-10-02,18.88051,OTHER,99.005011,365772,Chiang Mai,2024-11-13
152,190 Beach Rd,Unit #94-981,Singapore,Singapore,2019-10-22,1.30989,OTHER,103.804014,530277,Central,2020-04-23
153,37 River Rd,Unit #65-231,Penang,Malaysia,2019-06-20,5.395754,GARAGE,100.238839,462476,Penang,2019-08-22
154,327 Beach Rd,Unit #70-516,Penang,Malaysia,2024-11-27,5.358537,ACCIDENT_SITE,100.396093,66620,Penang,2025-04-22
155,256 Hill Rd,Unit #70-303,Jakarta,Indonesia,2022-01-28,-6.260438,GARAGE,106.606073,608823,DKI Jakarta,2022-03-22
156,209 Market Rd,Unit #74-381,Bangkok,Thailand,2019-11-14,13.752081,BRANCH_OFFICE,100.345273,84861,Bangkok,2020-03-24
157,236 Park Rd,Unit #17-948,Chiang Mai,Thailand,2024-01-13,18.830666,OTHER,99.021044,266842,Chiang Mai,2024-08-24
158,238 Market Rd,Unit #64-350,Johor Bahru,Malaysia,2022-02-18,1.467672,ACCIDENT_SITE,103.744507,601534,Johor,2022-04-18
159,283 River Rd,Unit #81-754,Jakarta,Indonesia,2024-09-07,-6.081792,OTHER,106.730846,714728,DKI Jakarta,2025-03-07
160,117 Market Rd,Unit #90-408,Phuket,Thailand,2022-07-30,7.834746,INSURED_ADDRESS,98.339421,821264,Phuket,2023-07-13
161,161 Market Rd,Unit #39-025,Penang,Malaysia,2024-06-09,5.320504,INSURED_ADDRESS,100.319381,672233,Penang,2024-07-10
162,256 Main Rd,Unit #19-413,Bangkok,Thailand,2024-06-29,13.628617,OTHER,100.367702,888780,Bangkok,2025-05-08
163,537 Beach Rd,Unit #61-011,Johor Bahru,Malaysia,2020-07-08,1.496288,GARAGE,103.78724,446525,Johor,2020-10-10
164,403 River Rd,Unit #50-724,Chiang Mai,Thailand,2021-09-13,18.760512,BRANCH_OFFICE,99.052001,382235,Chiang Mai,2022-07-06
165,85 River Rd,Unit #16-058,Surabaya,Indonesia,2020-12-25,-7.171147,BRANCH_OFFICE,112.645958,678444,East Java,2021-03-12
166,856 Orchard Rd,Unit #35-905,Kuala Lumpur,Malaysia,2023-08-23,3.105793,INSURED_ADDRESS,101.69126,195715,Kuala Lumpur,2023-12-26
167,411 Market Rd,Unit #06-995,Manila,Philippines,2024-05-30,14.680843,INSURED_ADDRESS,121.020188,810244,Metro Manila,2025-05-22
168,662 Orchard Rd,Unit #18-512,Chiang Mai,Thailand,2023-06-19,18.76797,INSURED_ADDRESS,99.064648,56397,Chiang Mai,2023-08-07
169,911 Park Rd,Unit #88-379,Singapore,Singapore,2023-02-12,1.250388,GARAGE,103.844811,456381,Central,2023-03-19
170,514 Beach Rd,Unit #06-620,Jakarta,Indonesia,2021-01-30,-6.071784,BRANCH_OFFICE,106.774778,963938,DKI Jakarta,2021-06-30
171,944 Park Rd,Unit #17-388,Manila,Philippines,2021-08-19,14.63911,OTHER,120.998151,900941,Metro Manila,2022-03-09
172,378 Beach Rd,Unit #31-180,Penang,Malaysia,2020-10-23,5.402267,BRANCH_OFFICE,100.257909,992663,Penang,2021-06-24
173,267 Market Rd,Unit #38-706,Bangkok,Thailand,2021-09-29,13.737473,BRANCH_OFFICE,100.583633,356723,Bangkok,2022-10-31
174,867 Hill Rd,Unit #68-920,Jakarta,Indonesia,2019-02-19,-6.19305,INSURED_ADDRESS,106.783729,787391,DKI Jakarta,2020-03-17
175,495 Park Rd,Unit #37-975,Surabaya,Indonesia,2022-09-08,-7.295851,GARAGE,112.789338,287033,East Java,2023-06-04
176,786 Market Rd,Unit #03-839,Phuket,Thailand,2020-07-27,7.816592,INSURED_ADDRESS,98.322636,228742,Phuket,2021-03-27
177,995 Beach Rd,Unit #34-262,Johor Bahru,Malaysia,2021-03-26,1.472768,OTHER,103.672441,793968,Johor,2022-03-17
178,968 Hill Rd,Unit #06-799,Jakarta,Indonesia,2024-12-24,-6.207456,INSURED_ADDRESS,106.640359,576310,DKI Jakarta,2025-11-07
179,663 Market Rd,Unit #06-145,Phuket,Thailand,2022-01-30,8.062783,INSURED_ADDRESS,98.204755,195973,Phuket,2023-02-17
180,852 Hill Rd,Unit #74-201,Surabaya,Indonesia,2024-07-11,-7.216314,INSURED_ADDRESS,112.628919,239964,East Java,2025-08-08
181,233 River Rd,Unit #15-124,Phuket,Thailand,2020-06-01,7.992688,OTHER,98.489426,757315,Phuket,2020-07-29
182,232 Market Rd,Unit #18-915,Phuket,Thailand,2022-12-06,7.977425,BRANCH_OFFICE,98.274572,139469,Phuket,2023-01-21
183,392 Main Rd,Unit #78-111,Penang,Malaysia,2024-10-26,5.421328,OTHER,100.369686,888922,Penang,2025-10-12
184,164 Orchard Rd,Unit #42-017,Johor Bahru,Malaysia,2023-01-20,1.485059,ACCIDENT_SITE,103.761179,209008,Johor,2024-02-20
185,593 Orchard Rd,Unit #13-940,Chiang Mai,Thailand,2021-10-08,18.871989,OTHER,99.097251,752762,Chiang Mai,2022-07-20
186,588 Beach Rd,Unit #88-397,Johor Bahru,Malaysia,2020-01-21,1.522867,BRANCH_OFFICE,103.666358,409812,Johor,2020-08-24
187,618 Orchard Rd,Unit #79-943,Surabaya,Indonesia,2024-07-31,-7.246302,GARAGE,112.870069,993373,East Java,2024-11-16
188,380 Beach Rd,Unit #90-046,Phuket,Thailand,2020-12-31,8.021562,INSURED_ADDRESS,98.357195,113442,Phuket,2021-09-27
189,569 Hill Rd,Unit #64-206,Bangkok,Thailand,2021-04-07,13.828297,INSURED_ADDRESS,100.457962,553398,Bangkok,2021-05-31
190,788 Park Rd,Unit #16-878,Jakarta,Indonesia,2019-08-28,-6.29823,INSURED_ADDRESS,106.601368,809199,DKI Jakarta,2020-03-23
191,927 Hill Rd,Unit #80-423,Jakarta,Indonesia,2024-01-27,-6.182151,ACCIDENT_SITE,106.788093,219096,DKI Jakarta,2024-07-08
192,969 Orchard Rd,Unit #57-100,Manila,Philippines,2020-04-09,14.672491,ACCIDENT_SITE,121.08073,152185,Metro Manila,2021-03-24
193,398 Main Rd,Unit #89-689,Surabaya,Indonesia,2024-04-09,-7.346158,GARAGE,112.714201,740706,East Java,2024-10-30
194,190 Park Rd,Unit #01-082,Surabaya,Indonesia,2019-09-08,-7.208745,INSURED_ADDRESS,112.740763,217324,East Java,2020-05-01
195,890 River Rd,Unit #58-157,Chiang Mai,Thailand,2023-07-10,18.884689,INSURED_ADDRESS,99.069296,783701,Chiang Mai,2024-03-13
196,240 Hill Rd,Unit #41-650,Johor Bahru,Malaysia,2022-08-29,1.487001,BRANCH_OFFICE,103.649222,835026,Johor,2023-08-26
197,641 River Rd,Unit #72-161,Bangkok,Thailand,2020-08-27,13.710589,OTHER,100.610319,475713,Bangkok,2021-04-22
198,58 Beach Rd,Unit #88-572,Bangkok,Thailand,2021-07-20,13.828829,ACCIDENT_SITE,100.647466,65032,Bangkok,2021-11-29
199,691 Orchard Rd,Unit #76-838,Jakarta,Indonesia,2022-05-08,-6.072072,GARAGE,106.894281,388471,DKI Jakarta,2023-05-06
200,709 Orchard Rd,Unit #28-067,Manila,Philippines,2019-09-17,14.50564,BRANCH_OFFICE,121.012646,720954,Metro Manila,2020-10-05
201,519 Hill Rd,Unit #81-149,Penang,Malaysia,2019-06-25,5.47236,OTHER,100.249283,368245,Penang,2019-12-27
202,630 Park Rd,Unit #06-696,Chiang Mai,Thailand,2024-05-13,18.74169,BRANCH_OFFICE,98.985705,43049,Chiang Mai,2025-04-13
203,45 Market Rd,Unit #24-229,Jakarta,Indonesia,2020-12-24,-6.298292,GARAGE,106.910296,917611,DKI Jakarta,2021-07-14
204,487 River Rd,Unit #62-220,Jakarta,Indonesia,2021-02-11,-6.041824,ACCIDENT_SITE,106.92049,190793,DKI Jakarta,2022-01-26
205,645 Market Rd,Unit #35-896,Johor Bahru,Malaysia,2019-09-15,1.547523,GARAGE,103.706548,633309,Johor,2020-01-31
206,448 River Rd,Unit #41-123,Phuket,Thailand,2020-03-18,7.988434,INSURED_ADDRESS,98.346868,199902,Phuket,2020-11-26
207,910 River Rd,Unit #79-769,Bangkok,Thailand,2020-09-07,13.72256,BRANCH_OFFICE,100.477653,34145,Bangkok,2021-09-30
208,631 Beach Rd,Unit #71-052,Singapore,Singapore,2020-10-12,1.410178,GARAGE,103.644986,93105,Central,2020-12-08
209,621 Hill Rd,Unit #06-069,Kuala Lumpur,Malaysia,2020-10-25,3.192042,BRANCH_OFFICE,101.728357,152505,Kuala Lumpur,2021-09-27
210,613 Market Rd,Unit #46-841,Johor Bahru,Malaysia,2023-11-11,1.540939,OTHER,103.777409,588401,Johor,2023-12-30
211,745 River Rd,Unit #09-225,Jakarta,Indonesia,2019-06-03,-6.29983,BRANCH_OFFICE,106.626491,969587,DKI Jakarta,2019-10-26
212,220 River Rd,Unit #56-870,Jakarta,Indonesia,2023-06-12,-6.154044,INSURED_ADDRESS,106.999119,310383,DKI Jakarta,2024-04-18
213,827 Orchard Rd,Unit #40-683,Chiang Mai,Thailand,2023-07-01,18.890341,GARAGE,98.96128,230774,Chiang Mai,2024-02-10
214,217 Orchard Rd,Unit #43-697,Chiang Mai,Thailand,2024-08-14,18.700547,OTHER,98.99656,296728,Chiang Mai,2024-12-05
215,337 Beach Rd,Unit #32-970,Kuala Lumpur,Malaysia,2023-10-26,3.159013,BRANCH_OFFICE,101.600064,31695,Kuala Lumpur,2023-12-15
216,233 Hill Rd,Unit #85-957,Surabaya,Indonesia,2019-10-02,-7.222502,BRANCH_OFFICE,112.832039,594536,East Java,2020-10-27
217,820 Main Rd,Unit #30-051,Chiang Mai,Thailand,2021-05-19,18.763662,GARAGE,98.924745,336619,Chiang Mai,2022-03-23
218,416 Park Rd,Unit #25-765,Phuket,Thailand,2019-01-06,7.8765,GARAGE,98.381577,734880,Phuket,2019-03-15
219,311 Beach Rd,Unit #29-461,Johor Bahru,Malaysia,2024-02-05,1.52857,INSURED_ADDRESS,103.705918,731872,Johor,2024-08-11
220,778 Orchard Rd,Unit #69-342,Jakarta,Indonesia,2023-01-01,-6.202585,BRANCH_OFFICE,106.943119,248632,DKI Jakarta,2023-09-09
221,848 Orchard Rd,Unit #26-136,Kuala Lumpur,Malaysia,2021-01-04,3.096844,GARAGE,101.561301,493241,Kuala Lumpur,2021-04-24
222,531 Orchard Rd,Unit #69-897,Penang,Malaysia,2020-07-07,5.395864,INSURED_ADDRESS,100.4728,847752,Penang,2020-08-13
223,685 Park Rd,Unit #70-489,Manila,Philippines,2020-08-28,14.565201,GARAGE,120.917008,524996,Metro Manila,2021-07-11
224,6 Market Rd,Unit #81-751,Manila,Philippines,2024-12-07,14.708725,GARAGE,120.924853,908572,Metro Manila,2025-12-30
225,791 Orchard Rd,Unit #94-112,Penang,Malaysia,2024-08-31,5.415142,GARAGE,100.444417,263171,Penang,2024-09-21
226,537 Main Rd,Unit #32-705,Chiang Mai,Thailand,2020-06-07,18.855727,BRANCH_OFFICE,98.922403,360069,Chiang Mai,2021-04-18
227,907 Orchard Rd,Unit #47-400,Singapore,Singapore,2019-08-15,1.454711,BRANCH_OFFICE,104.071924,937506,Central,2020-05-17
228,597 Hill Rd,Unit #22-413,Surabaya,Indonesia,2024-01-30,-7.313644,OTHER,112.604732,750464,East Java,2024-06-18
229,924 Beach Rd,Unit #73-625,Chiang Mai,Thailand,2020-04-27,18.892004,BRANCH_OFFICE,99.077457,367920,Chiang Mai,2020-07-18
230,645 Park Rd,Unit #10-879,Penang,Malaysia,2019-11-25,5.311197,GARAGE,100.394486,66962,Penang,2020-05-03
231,225 Hill Rd,Unit #55-244,Bangkok,Thailand,2023-04-05,13.623578,OTHER,100.365353,712160,Bangkok,2023-06-11
232,30 Market Rd,Unit #30-587,Bangkok,Thailand,2022-07-28,13.854423,BRANCH_OFFICE,100.370887,784672,Bangkok,2023-03-04
233,862 Park Rd,Unit #56-999,Chiang Mai,Thailand,2021-07-30,18.859677,OTHER,99.09028,761567,Chiang Mai,2022-07-14
234,468 Park Rd,Unit #05-032,Chiang Mai,Thailand,2022-09-21,18.851113,ACCIDENT_SITE,98.978031,186076,Chiang Mai,2023-09-17
235,916 Park Rd,Unit #74-077,Jakarta,Indonesia,2020-05-06,-6.297719,ACCIDENT_SITE,106.722648,968273,DKI Jakarta,2021-04-26
236,829 Hill Rd,Unit #55-427,Phuket,Thailand,2022-09-17,7.848837,ACCIDENT_SITE,98.241055,350215,Phuket,2023-07-09
237,973 Market Rd,Unit #83-424,Jakarta,Indonesia,2023-12-12,-6.173078,INSURED_ADDRESS,106.959548,793181,DKI Jakarta,2024-12-24
238,451 Main Rd,Unit #83-481,Bangkok,Thailand,2021-01-14,13.717749,INSURED_ADDRESS,100.51975,76397,Bangkok,2022-01-26
239,725 Hill Rd,Unit #42-142,Penang,Malaysia,2021-05-27,5.482133,OTHER,100.415629,595432,Penang,2022-02-12
240,704 Park Rd,Unit #64-096,Singapore,Singapore,2019-12-05,1.364137,OTHER,104.096089,130764,Central,2020-03-31
241,868 Market Rd,Unit #45-739,Phuket,Thailand,2021-03-04,7.838642,BRANCH_OFFICE,98.451997,890432,Phuket,2022-03-07
242,578 Hill Rd,Unit #82-463,Singapore,Singapore,2023-07-20,1.374034,GARAGE,104.05399,453745,Central,2024-04-09
243,721 Orchard Rd,Unit #04-018,Johor Bahru,Malaysia,2020-12-17,1.480024,OTHER,103.760205,466231,Johor,2021-02-23
244,828 Park Rd,Unit #39-663,Chiang Mai,Thailand,2024-08-17,18.856892,OTHER,98.908459,871627,Chiang Mai,2024-09-15
245,919 Main Rd,Unit #11-456,Surabaya,Indonesia,2024-01-12,-7.235688,ACCIDENT_SITE,112.778642,776463,East Java,2024-04-06
246,500 Market Rd,Unit #87-916,Bangkok,Thailand,2021-10-13,13.706383,OTHER,100.317608,595302,Bangkok,2022-01-21
247,737 River Rd,Unit #01-350,Jakarta,Indonesia,2021-05-23,-6.08558,INSURED_ADDRESS,106.643184,270702,DKI Jakarta,2022-01-31
248,914 Hill Rd,Unit #12-336,Manila,Philippines,2022-07-03,14.732577,GARAGE,120.976232,626931,Metro Manila,2023-06-30
249,462 Hill Rd,Unit #40-787,Chiang Mai,Thailand,2019-04-30,18.798006,GARAGE,98.988619,241454,Chiang Mai,2020-02-26
250,610 Market Rd,Unit #57-954,Penang,Malaysia,2020-12-09,5.32557,ACCIDENT_SITE,100.462386,986208,Penang,2021-10-10
251,657 Beach Rd,Unit #96-171,Phuket,Thailand,2022-04-17,8.029247,BRANCH_OFFICE,98.272869,187965,Phuket,2023-03-23
252,262 Hill Rd,Unit #69-753,Kuala Lumpur,Malaysia,2024-09-30,3.157326,BRANCH_OFFICE,101.790086,852955,Kuala Lumpur,2025-09-13
253,396 Main Rd,Unit #02-561,Bangkok,Thailand,2024-05-23,13.613593,ACCIDENT_SITE,100.31192,867556,Bangkok,2025-06-03
254,430 Park Rd,Unit #26-302,Singapore,Singapore,2021-03-08,1.350698,OTHER,103.607522,157667,Central,2021-10-24
255,690 Hill Rd,Unit #83-565,Phuket,Thailand,2020-01-31,7.980637,INSURED_ADDRESS,98.435218,303948,Phuket,2020-11-13
256,965 Park Rd,Unit #99-383,Jakarta,Indonesia,2019-10-24,-6.272973,ACCIDENT_SITE,106.997474,514858,DKI Jakarta,2020-05-20
257,702 Orchard Rd,Unit #09-480,Manila,Philippines,2023-07-10,14.583073,GARAGE,120.930746,233698,Metro Manila,2023-11-10
258,98 Park Rd,Unit #88-020,Bangkok,Thailand,2024-09-09,13.899034,INSURED_ADDRESS,100.48508,354492,Bangkok,2025-04-05
259,47 Park Rd,Unit #79-716,Chiang Mai,Thailand,2021-05-28,18.725211,GARAGE,98.906287,77538,Chiang Mai,2022-01-12
260,597 Main Rd,Unit #81-192,Phuket,Thailand,2021-11-09,7.855093,OTHER,98.23173,746578,Phuket,2022-02-21
261,232 Beach Rd,Unit #97-564,Singapore,Singapore,2022-11-11,1.446833,ACCIDENT_SITE,103.657267,199721,Central,2023-02-11
262,91 Market Rd,Unit #36-499,Jakarta,Indonesia,2019-08-31,-6.259419,GARAGE,106.978206,696642,DKI Jakarta,2020-01-17
263,635 River Rd,Unit #51-167,Manila,Philippines,2022-02-04,14.561985,INSURED_ADDRESS,121.093072,605055,Metro Manila,2022-03-20
264,655 Orchard Rd,Unit #93-319,Surabaya,Indonesia,2023-07-28,-7.159926,ACCIDENT_SITE,112.78531,699978,East Java,2023-10-21
265,90 Hill Rd,Unit #44-190,Surabaya,Indonesia,2022-06-08,-7.283592,BRANCH_OFFICE,112.851632,634893,East Java,2023-03-05
266,957 Hill Rd,Unit #87-026,Johor Bahru,Malaysia,2020-11-01,1.454861,OTHER,103.699444,440883,Johor,2021-10-08
267,700 Orchard Rd,Unit #31-152,Kuala Lumpur,Malaysia,2022-12-13,3.193827,INSURED_ADDRESS,101.79159,168100,Kuala Lumpur,2023-11-25
268,836 Beach Rd,Unit #88-647,Manila,Philippines,2020-09-23,14.749285,INSURED_ADDRESS,120.969221,197315,Metro Manila,2021-10-05
269,739 River Rd,Unit #76-217,Chiang Mai,Thailand,2020-01-10,18.785653,OTHER,98.903381,346635,Chiang Mai,2020-11-10
270,743 Hill Rd,Unit #75-653,Phuket,Thailand,2024-09-30,7.898645,GARAGE,98.256513,200514,Phuket,2025-09-19
271,478 Beach Rd,Unit #02-184,Jakarta,Indonesia,2023-02-28,-6.203671,GARAGE,106.619818,376754,DKI Jakarta,2024-01-07
272,63 Beach Rd,Unit #23-118,Kuala Lumpur,Malaysia,2023-12-30,3.070722,BRANCH_OFFICE,101.551994,808683,Kuala Lumpur,2024-03-15
273,879 Orchard Rd,Unit #25-318,Kuala Lumpur,Malaysia,2020-07-09,3.088099,BRANCH_OFFICE,101.651849,316975,Kuala Lumpur,2020-08-05
274,70 Beach Rd,Unit #89-126,Singapore,Singapore,2024-04-02,1.274865,BRANCH_OFFICE,103.726819,831363,Central,2024-11-23
275,518 Hill Rd,Unit #09-185,Kuala Lumpur,Malaysia,2020-08-30,3.207724,INSURED_ADDRESS,101.66729,342039,Kuala Lumpur,2021-03-01
276,831 Market Rd,Unit #76-901,Bangkok,Thailand,2022-08-05,13.712704,BRANCH_OFFICE,100.450754,901286,Bangkok,2023-07-31
277,224 Main Rd,Unit #20-606,Kuala Lumpur,Malaysia,2022-08-14,3.168506,GARAGE,101.579256,341145,Kuala Lumpur,2023-03-22
278,654 Park Rd,Unit #62-251,Phuket,Thailand,2024-08-01,7.853298,GARAGE,98.478421,556078,Phuket,2025-03-25
279,251 Park Rd,Unit #31-564,Singapore,Singapore,2021-01-05,1.300441,ACCIDENT_SITE,103.623207,990751,Central,2021-06-02
280,774 Beach Rd,Unit #93-380,Johor Bahru,Malaysia,2019-06-27,1.499301,OTHER,103.618994,185162,Johor,2020-02-08
281,703 Beach Rd,Unit #64-262,Johor Bahru,Malaysia,2024-02-17,1.452159,OTHER,103.600769,379039,Johor,2024-08-02
282,356 River Rd,Unit #31-015,Surabaya,Indonesia,2020-03-10,-7.230999,INSURED_ADDRESS,112.742118,980409,East Java,2020-12-28
283,626 Park Rd,Unit #56-894,Kuala Lumpur,Malaysia,2022-08-18,3.207479,BRANCH_OFFICE,101.581512,153578,Kuala Lumpur,2023-02-20
284,416 Main Rd,Unit #65-336,Kuala Lumpur,Malaysia,2022-07-04,3.186254,BRANCH_OFFICE,101.636569,396131,Kuala Lumpur,2022-09-03
285,324 Beach Rd,Unit #09-321,Penang,Malaysia,2023-11-16,5.395044,INSURED_ADDRESS,100.202893,138164,Penang,2024-02-28
286,380 River Rd,Unit #22-575,Penang,Malaysia,2024-02-19,5.455296,GARAGE,100.289262,873906,Penang,2024-12-23
287,600 Orchard Rd,Unit #29-843,Surabaya,Indonesia,2023-10-08,-7.340601,GARAGE,112.694687,103774,East Java,2024-05-21
288,376 Beach Rd,Unit #38-462,Penang,Malaysia,2023-10-29,5.364351,INSURED_ADDRESS,100.462145,100123,Penang,2023-12-24
289,278 River Rd,Unit #15-542,Penang,Malaysia,2021-11-27,5.474472,OTHER,100.278989,251085,Penang,2022-11-18
290,198 Park Rd,Unit #82-895,Jakarta,Indonesia,2020-04-06,-6.084762,BRANCH_OFFICE,106.842017,34318,DKI Jakarta,2020-10-11
291,52 River Rd,Unit #02-153,Phuket,Thailand,2023-04-12,7.957752,OTHER,98.229765,428755,Phuket,2023-08-10
292,778 Market Rd,Unit #38-878,Manila,Philippines,2020-08-15,14.576598,INSURED_ADDRESS,120.981412,202588,Metro Manila,2020-12-18
293,61 Main Rd,Unit #65-539,Penang,Malaysia,2024-03-13,5.434893,GARAGE,100.238071,337115,Penang,2024-10-03
294,259 Main Rd,Unit #52-818,Surabaya,Indonesia,2020-01-04,-7.349034,ACCIDENT_SITE,112.754847,34266,East Java,2020-03-16
295,453 Orchard Rd,Unit #92-055,Manila,Philippines,2023-07-15,14.645501,ACCIDENT_SITE,121.040811,71404,Metro Manila,2024-03-02
296,31 Main Rd,Unit #93-901,Kuala Lumpur,Malaysia,2024-02-21,3.162312,INSURED_ADDRESS,101.680593,220243,Kuala Lumpur,2024-04-15
297,453 Park Rd,Unit #35-810,Surabaya,Indonesia,2023-08-02,-7.174136,OTHER,112.865162,317706,East Java,2024-05-17
298,266 Hill Rd,Unit #03-356,Surabaya,Indonesia,2023-07-18,-7.189726,ACCIDENT_SITE,112.761052,866223,East Java,2024-02-20
299,982 River Rd,Unit #44-229,Chiang Mai,Thailand,2019-11-12,18.884253,GARAGE,99.025737,565859,Chiang Mai,2020-03-06
300,266 River Rd,Unit #86-484,Phuket,Thailand,2022-12-14,7.980739,ACCIDENT_SITE,98.429026,417826,Phuket,2023-08-14
301,283 River Rd,Unit #54-266,Bangkok,Thailand,2020-04-30,13.600942,INSURED_ADDRESS,100.30683,524414,Bangkok,2021-06-03
302,304 Hill Rd,Unit #10-861,Manila,Philippines,2021-01-30,14.744675,GARAGE,121.006015,537700,Metro Manila,2021-09-23
303,975 Market Rd,Unit #02-322,Bangkok,Thailand,2024-01-15,13.887098,INSURED_ADDRESS,100.430949,724931,Bangkok,2024-08-31
304,31 Orchard Rd,Unit #96-424,Surabaya,Indonesia,2021-01-03,-7.348427,OTHER,112.775354,843317,East Java,2021-04-18
305,228 Market Rd,Unit #84-049,Penang,Malaysia,2020-04-27,5.472236,GARAGE,100.24802,819924,Penang,2020-11-21
306,874 Main Rd,Unit #15-634,Singapore,Singapore,2022-09-19,1.258491,INSURED_ADDRESS,103.78712,364046,Central,2023-03-24
307,406 River Rd,Unit #10-720,Surabaya,Indonesia,2020-06-26,-7.152803,INSURED_ADDRESS,112.629337,114726,East Java,2020-10-06
308,791 Park Rd,Unit #62-505,Surabaya,Indonesia,2019-01-31,-7.313933,ACCIDENT_SITE,112.878301,462378,East Java,2019-07-14
309,14 Main Rd,Unit #22-812,Jakarta,Indonesia,2021-01-08,-6.123305,INSURED_ADDRESS,106.700781,267618,DKI Jakarta,2021-12-14
310,16 Park Rd,Unit #42-234,Phuket,Thailand,2022-12-20,7.884414,BRANCH_OFFICE,98.412613,191890,Phuket,2023-01-04
311,791 Market Rd,Unit #10-788,Kuala Lumpur,Malaysia,2022-06-14,3.107406,BRANCH_OFFICE,101.604798,186389,Kuala Lumpur,2022-11-07
312,987 Hill Rd,Unit #45-900,Singapore,Singapore,2024-01-23,1.319045,BRANCH_OFFICE,103.787588,278862,Central,2024-12-31
313,17 Hill Rd,Unit #66-463,Johor Bahru,Malaysia,2019-11-29,1.541122,OTHER,103.728475,688473,Johor,2020-10-18
314,269 Orchard Rd,Unit #52-602,Singapore,Singapore,2022-06-15,1.353473,GARAGE,104.011179,175397,Central,2023-05-03
315,56 Park Rd,Unit #20-423,Jakarta,Indonesia,2020-04-13,-6.018155,GARAGE,106.909884,54597,DKI Jakarta,2020-12-22
316,535 Beach Rd,Unit #63-922,Surabaya,Indonesia,2021-11-02,-7.273703,ACCIDENT_SITE,112.795288,95168,East Java,2022-05-02
317,291 Park Rd,Unit #10-133,Phuket,Thailand,2024-12-06,8.042039,GARAGE,98.381296,619722,Phuket,2025-07-12
318,759 Beach Rd,Unit #85-233,Phuket,Thailand,2019-10-03,7.844038,ACCIDENT_SITE,98.385082,923011,Phuket,2020-03-17
319,728 Orchard Rd,Unit #41-231,Jakarta,Indonesia,2021-11-21,-6.061379,ACCIDENT_SITE,106.722941,698545,DKI Jakarta,2022-01-31
320,361 River Rd,Unit #25-995,Kuala Lumpur,Malaysia,2019-11-18,3.222776,GARAGE,101.698272,48838,Kuala Lumpur,2020-04-13
321,709 River Rd,Unit #91-615,Kuala Lumpur,Malaysia,2023-04-15,3.171616,INSURED_ADDRESS,101.634487,919064,Kuala Lumpur,2023-09-16
322,696 Beach Rd,Unit #99-141,Johor Bahru,Malaysia,2019-08-21,1.522641,INSURED_ADDRESS,103.791716,93810,Johor,2020-05-29
323,30 Orchard Rd,Unit #47-139,Surabaya,Indonesia,2021-08-29,-7.326347,ACCIDENT_SITE,112.649473,647859,East Java,2022-08-01
324,434 Main Rd,Unit #58-011,Bangkok,Thailand,2022-06-22,13.843258,GARAGE,100.636143,480715,Bangkok,2023-04-05
325,622 River Rd,Unit #34-643,Bangkok,Thailand,2022-08-13,13.766119,OTHER,100.377923,492351,Bangkok,2023-08-23
326,194 Orchard Rd,Unit #98-818,Manila,Philippines,2023-09-30,14.672185,INSURED_ADDRESS,120.900027,551343,Metro Manila,2024-08-20
327,485 Hill Rd,Unit #91-305,Kuala Lumpur,Malaysia,2019-06-03,3.176035,ACCIDENT_SITE,101.571204,148701,Kuala Lumpur,2020-05-05
328,77 Beach Rd,Unit #14-338,Kuala Lumpur,Malaysia,2024-12-25,3.19372,OTHER,101.696431,312321,Kuala Lumpur,2025-12-03
329,207 River Rd,Unit #16-052,Singapore,Singapore,2023-12-27,1.434079,OTHER,104.02904,72237,Central,2024-03-24
330,904 Park Rd,Unit #39-830,Johor Bahru,Malaysia,2021-03-05,1.451988,GARAGE,103.64903,171357,Johor,2021-04-07
331,534 Market Rd,Unit #79-862,Bangkok,Thailand,2020-07-27,13.706132,ACCIDENT_SITE,100.512178,501408,Bangkok,2021-01-23
332,554 Park Rd,Unit #20-302,Bangkok,Thailand,2020-01-05,13.894518,INSURED_ADDRESS,100.511852,939409,Bangkok,2020-09-10
333,415 Hill Rd,Unit #71-216,Penang,Malaysia,2023-05-19,5.416206,OTHER,100.310878,286377,Penang,2023-08-22
334,886 Orchard Rd,Unit #25-347,Johor Bahru,Malaysia,2024-10-25,1.501103,GARAGE,103.682753,734059,Johor,2025-11-12
335,485 Park Rd,Unit #38-026,Manila,Philippines,2021-12-14,14.58929,INSURED_ADDRESS,121.002476,869206,Metro Manila,2022-07-22
336,920 Orchard Rd,Unit #10-526,Phuket,Thailand,2019-02-23,7.819093,ACCIDENT_SITE,98.200881,434137,Phuket,2019-05-26
337,633 Beach Rd,Unit #03-097,Phuket,Thailand,2024-06-22,7.966118,BRANCH_OFFICE,98.467331,916225,Phuket,2025-01-01
338,481 Hill Rd,Unit #31-980,Penang,Malaysia,2019-01-04,5.482121,INSURED_ADDRESS,100.268608,79315,Penang,2019-06-16
339,466 Hill Rd,Unit #07-417,Penang,Malaysia,2022-09-16,5.364017,OTHER,100.290358,693354,Penang,2023-10-20
340,104 Orchard Rd,Unit #30-658,Jakarta,Indonesia,2021-07-04,-6.223192,INSURED_ADDRESS,106.722699,391280,DKI Jakarta,2022-05-04
341,256 River Rd,Unit #75-715,Bangkok,Thailand,2023-02-22,13.67998,GARAGE,100.613103,176989,Bangkok,2023-06-24
342,483 Beach Rd,Unit #22-794,Johor Bahru,Malaysia,2023-04-04,1.53064,ACCIDENT_SITE,103.694797,998791,Johor,2023-05-14
343,174 Market Rd,Unit #99-585,Jakarta,Indonesia,2023-05-15,-6.119975,ACCIDENT_SITE,106.613145,129106,DKI Jakarta,2023-07-19
344,490 Park Rd,Unit #86-099,Jakarta,Indonesia,2019-09-09,-6.204225,BRANCH_OFFICE,106.629875,888007,DKI Jakarta,2020-09-09
345,943 Market Rd,Unit #28-340,Chiang Mai,Thailand,2021-08-30,18.756792,ACCIDENT_SITE,98.909577,440927,Chiang Mai,2021-10-21
346,859 Orchard Rd,Unit #01-839,Singapore,Singapore,2022-01-29,1.240751,BRANCH_OFFICE,104.029511,543981,Central,2022-04-05
347,811 River Rd,Unit #38-121,Kuala Lumpur,Malaysia,2020-06-21,3.203229,GARAGE,101.682653,523146,Kuala Lumpur,2020-07-04
348,988 River Rd,Unit #73-653,Kuala Lumpur,Malaysia,2023-09-13,3.165183,ACCIDENT_SITE,101.734143,732962,Kuala Lumpur,2024-07-27
349,615 Main Rd,Unit #42-548,Manila,Philippines,2021-10-07,14.527653,GARAGE,120.966199,340642,Metro Manila,2022-05-08
350,860 Orchard Rd,Unit #76-161,Kuala Lumpur,Malaysia,2021-06-01,3.213881,OTHER,101.737881,57351,Kuala Lumpur,2021-08-12
351,687 River Rd,Unit #64-439,Chiang Mai,Thailand,2020-03-03,18.739162,BRANCH_OFFICE,99.022856,756060,Chiang Mai,2020-04-23
352,448 Market Rd,Unit #77-675,Jakarta,Indonesia,2020-08-09,-6.089088,OTHER,106.62926,902817,DKI Jakarta,2020-12-29
353,429 Market Rd,Unit #50-547,Chiang Mai,Thailand,2020-06-14,18.701163,GARAGE,98.982655,910462,Chiang Mai,2021-04-10
354,206 Main Rd,Unit #15-069,Jakarta,Indonesia,2024-10-31,-6.098729,INSURED_ADDRESS,106.939481,936187,DKI Jakarta,2025-06-16
355,279 Orchard Rd,Unit #09-357,Manila,Philippines,2022-02-28,14.56382,BRANCH_OFFICE,120.913628,413661,Metro Manila,2022-04-10
356,213 Market Rd,Unit #25-262,Singapore,Singapore,2022-09-25,1.399854,GARAGE,104.032419,684888,Central,2023-07-06
357,908 Beach Rd,Unit #02-655,Jakarta,Indonesia,2024-04-16,-6.017587,BRANCH_OFFICE,106.603062,812711,DKI Jakarta,2024-06-29
358,800 River Rd,Unit #80-206,Kuala Lumpur,Malaysia,2023-02-02,3.247283,INSURED_ADDRESS,101.644965,143362,Kuala Lumpur,2023-05-23
359,143 Hill Rd,Unit #85-418,Kuala Lumpur,Malaysia,2024-07-19,3.054589,BRANCH_OFFICE,101.601917,392590,Kuala Lumpur,2025-07-18
360,902 Park Rd,Unit #97-185,Chiang Mai,Thailand,2022-10-04,18.839804,OTHER,98.955736,726117,Chiang Mai,2023-07-19
361,408 Hill Rd,Unit #17-674,Johor Bahru,Malaysia,2024-07-21,1.519008,OTHER,103.619659,579054,Johor,2025-04-02
362,72 Hill Rd,Unit #18-605,Phuket,Thailand,2021-02-10,7.898898,GARAGE,98.365431,919537,Phuket,2021-12-09
363,245 River Rd,Unit #95-651,Kuala Lumpur,Malaysia,2024-01-23,3.101912,GARAGE,101.751233,36091,Kuala Lumpur,2024-08-06
364,33 Market Rd,Unit #04-782,Jakarta,Indonesia,2022-10-13,-6.03862,GARAGE,106.89152,344629,DKI Jakarta,2023-07-24
365,367 Orchard Rd,Unit #59-837,Surabaya,Indonesia,2020-11-14,-7.344162,GARAGE,112.898128,166224,East Java,2021-06-17
366,164 Main Rd,Unit #76-637,Penang,Malaysia,2023-12-16,5.323706,ACCIDENT_SITE,100.492712,454487,Penang,2024-07-13
367,872 Beach Rd,Unit #26-663,Manila,Philippines,2019-12-15,14.657178,GARAGE,120.938817,270813,Metro Manila,2020-09-16
368,135 Hill Rd,Unit #83-387,Manila,Philippines,2020-12-28,14.579449,OTHER,120.90207,265890,Metro Manila,2021-01-10
369,579 Beach Rd,Unit #86-697,Phuket,Thailand,2021-08-31,7.866679,ACCIDENT_SITE,98.452329,690014,Phuket,2022-06-12
370,110 Orchard Rd,Unit #95-412,Kuala Lumpur,Malaysia,2022-12-22,3.219291,BRANCH_OFFICE,101.610129,978534,Kuala Lumpur,2023-07-25
371,747 Orchard Rd,Unit #89-864,Penang,Malaysia,2021-07-22,5.343978,ACCIDENT_SITE,100.404873,812693,Penang,2022-02-22
372,883 Orchard Rd,Unit #13-418,Johor Bahru,Malaysia,2022-07-07,1.471126,INSURED_ADDRESS,103.760158,879364,Johor,2023-02-10
373,613 Park Rd,Unit #71-777,Chiang Mai,Thailand,2021-08-18,18.838969,ACCIDENT_SITE,99.080761,170587,Chiang Mai,2022-08-11
374,490 Beach Rd,Unit #18-124,Surabaya,Indonesia,2024-01-29,-7.255906,BRANCH_OFFICE,112.880292,698770,East Java,2024-02-22
375,701 Beach Rd,Unit #80-058,Manila,Philippines,2022-08-23,14.707705,OTHER,120.926847,963468,Metro Manila,2022-10-19
376,180 Market Rd,Unit #32-745,Singapore,Singapore,2023-01-22,1.346933,OTHER,103.988023,195173,Central,2023-06-28
377,267 Hill Rd,Unit #92-955,Bangkok,Thailand,2021-05-30,13.624238,BRANCH_OFFICE,100.68535,117614,Bangkok,2022-03-04
378,422 Hill Rd,Unit #97-256,Phuket,Thailand,2019-10-20,8.062363,OTHER,98.290256,688245,Phuket,2020-09-16
379,178 Beach Rd,Unit #53-912,Manila,Philippines,2024-03-05,14.569985,INSURED_ADDRESS,120.971466,416977,Metro Manila,2024-10-20
380,251 Park Rd,Unit #43-671,Penang,Malaysia,2021-12-14,5.330003,BRANCH_OFFICE,100.42346,393209,Penang,2022-06-17
381,601 Market Rd,Unit #03-540,Chiang Mai,Thailand,2022-11-06,18.842403,OTHER,98.973772,81092,Chiang Mai,2023-09-19
382,79 Park Rd,Unit #87-193,Manila,Philippines,2021-04-13,14.523878,ACCIDENT_SITE,120.918035,158220,Metro Manila,2021-10-27
383,303 Main Rd,Unit #12-303,Kuala Lumpur,Malaysia,2024-04-18,3.062663,BRANCH_OFFICE,101.628599,102401,Kuala Lumpur,2024-08-04
384,845 Park Rd,Unit #17-156,Kuala Lumpur,Malaysia,2020-08-02,3.210012,ACCIDENT_SITE,101.580874,673559,Kuala Lumpur,2021-03-13
385,270 River Rd,Unit #52-710,Singapore,Singapore,2022-05-15,1.324627,OTHER,103.779306,367632,Central,2023-01-24
386,471 Hill Rd,Unit #73-749,Surabaya,Indonesia,2020-05-14,-7.29203,ACCIDENT_SITE,112.622025,389256,East Java,2020-10-03
387,487 Market Rd,Unit #19-082,Johor Bahru,Malaysia,2022-08-26,1.547357,INSURED_ADDRESS,103.746813,384775,Johor,2023-06-26
388,791 Beach Rd,Unit #77-172,Penang,Malaysia,2021-05-30,5.356153,BRANCH_OFFICE,100.362435,410105,Penang,2021-11-12
389,252 Hill Rd,Unit #03-690,Chiang Mai,Thailand,2021-06-09,18.89397,BRANCH_OFFICE,99.044531,486041,Chiang Mai,2022-03-31
390,483 Beach Rd,Unit #64-105,Jakarta,Indonesia,2023-11-05,-6.108406,GARAGE,106.722367,911590,DKI Jakarta,2024-08-15
391,46 Orchard Rd,Unit #68-792,Johor Bahru,Malaysia,2023-08-02,1.486213,GARAGE,103.700317,668578,Johor,2024-03-05
392,563 Hill Rd,Unit #75-435,Kuala Lumpur,Malaysia,2021-08-26,3.071968,BRANCH_OFFICE,101.749532,431322,Kuala Lumpur,2022-08-11
393,908 Park Rd,Unit #98-536,Johor Bahru,Malaysia,2019-10-07,1.530978,BRANCH_OFFICE,103.789195,460011,Johor,2019-12-28
394,678 Park Rd,Unit #32-204,Phuket,Thailand,2019-11-02,8.001228,INSURED_ADDRESS,98.249744,349364,Phuket,2020-03-24
395,34 Park Rd,Unit #93-727,Surabaya,Indonesia,2021-10-21,-7.213654,BRANCH_OFFICE,112.716071,686512,East Java,2022-08-18
396,27 Orchard Rd,Unit #95-084,Phuket,Thailand,2022-11-14,7.972173,GARAGE,98.431446,59372,Phuket,2023-01-25
397,849 Beach Rd,Unit #93-463,Singapore,Singapore,2023-09-18,1.276912,GARAGE,103.688524,966730,Central,2024-10-15
398,488 Main Rd,Unit #80-786,Phuket,Thailand,2023-08-06,7.820304,BRANCH_OFFICE,98.355821,936051,Phuket,2024-05-22
399,855 Main Rd,Unit #05-805,Bangkok,Thailand,2024-05-29,13.640962,BRANCH_OFFICE,100.437454,913333,Bangkok,2025-06-09
400,591 Hill Rd,Unit #15-486,Kuala Lumpur,Malaysia,2023-08-02,3.211113,OTHER,101.691846,421358,Kuala Lumpur,2023-11-08
401,146 Orchard Rd,Unit #89-569,Jakarta,Indonesia,2024-09-10,-6.295981,INSURED_ADDRESS,106.987038,427224,DKI Jakarta,2025-05-30
402,713 Hill Rd,Unit #15-811,Singapore,Singapore,2024-02-26,1.446009,GARAGE,103.833323,969174,Central,2024-08-08
403,798 Beach Rd,Unit #18-129,Kuala Lumpur,Malaysia,2023-04-14,3.107597,GARAGE,101.591948,284411,Kuala Lumpur,2024-04-13
404,620 Park Rd,Unit #03-589,Phuket,Thailand,2021-04-10,7.897334,ACCIDENT_SITE,98.212812,747328,Phuket,2021-07-02
405,584 Park Rd,Unit #48-196,Manila,Philippines,2019-03-30,14.689538,BRANCH_OFFICE,121.086681,174922,Metro Manila,2020-02-27
406,252 Main Rd,Unit #56-124,Penang,Malaysia,2022-02-11,5.426361,BRANCH_OFFICE,100.239438,150643,Penang,2022-09-18
407,37 Beach Rd,Unit #76-391,Phuket,Thailand,2022-12-06,8.079289,GARAGE,98.213724,429702,Phuket,2023-11-02
408,311 Orchard Rd,Unit #97-092,Chiang Mai,Thailand,2023-07-06,18.833767,OTHER,99.059121,61185,Chiang Mai,2023-10-30
409,321 Orchard Rd,Unit #79-315,Singapore,Singapore,2022-04-07,1.226874,OTHER,103.890132,992346,Central,2022-08-09
410,335 Orchard Rd,Unit #61-401,Surabaya,Indonesia,2023-09-02,-7.238625,OTHER,112.839897,348647,East Java,2023-10-24
411,114 Hill Rd,Unit #72-649,Manila,Philippines,2024-10-13,14.523309,ACCIDENT_SITE,121.051124,337208,Metro Manila,2024-12-15
412,230 Orchard Rd,Unit #55-778,Phuket,Thailand,2023-04-28,8.089042,BRANCH_OFFICE,98.221243,377623,Phuket,2023-05-16
413,945 Main Rd,Unit #35-294,Singapore,Singapore,2019-04-07,1.468175,GARAGE,103.739016,100314,Central,2019-07-13
414,206 Hill Rd,Unit #16-917,Bangkok,Thailand,2022-01-25,13.89731,BRANCH_OFFICE,100.683584,971975,Bangkok,2022-11-26
415,576 Market Rd,Unit #33-992,Phuket,Thailand,2024-02-26,7.82214,OTHER,98.221124,667246,Phuket,2024-06-13
416,151 Orchard Rd,Unit #74-683,Phuket,Thailand,2019-03-03,8.054285,ACCIDENT_SITE,98.330364,757652,Phuket,2019-07-15
417,120 River Rd,Unit #23-908,Manila,Philippines,2024-03-31,14.738632,BRANCH_OFFICE,121.090743,424470,Metro Manila,2024-07-05
418,41 River Rd,Unit #88-734,Penang,Malaysia,2020-12-02,5.393268,OTHER,100.488465,560254,Penang,2021-02-06
419,468 Market Rd,Unit #27-589,Manila,Philippines,2022-01-29,14.670701,ACCIDENT_SITE,121.075431,465856,Metro Manila,2022-05-20
420,715 Orchard Rd,Unit #90-167,Chiang Mai,Thailand,2023-03-06,18.867291,INSURED_ADDRESS,99.04167,702751,Chiang Mai,2023-06-05
421,614 Park Rd,Unit #12-110,Chiang Mai,Thailand,2023-12-28,18.812706,INSURED_ADDRESS,98.988591,833399,Chiang Mai,2024-09-16
422,525 Beach Rd,Unit #14-560,Kuala Lumpur,Malaysia,2024-09-28,3.152673,GARAGE,101.73347,823634,Kuala Lumpur,2025-04-29
423,694 Main Rd,Unit #63-862,Phuket,Thailand,2021-06-12,7.943085,INSURED_ADDRESS,98.292829,69547,Phuket,2021-11-25
424,38 Main Rd,Unit #53-117,Chiang Mai,Thailand,2019-06-21,18.768935,BRANCH_OFFICE,98.990297,273692,Chiang Mai,2019-09-15
425,580 River Rd,Unit #93-677,Singapore,Singapore,2021-09-27,1.349887,INSURED_ADDRESS,103.94714,454689,Central,2022-04-29
426,753 Park Rd,Unit #69-911,Singapore,Singapore,2022-08-20,1.298889,BRANCH_OFFICE,103.910221,837626,Central,2023-05-08
427,704 Beach Rd,Unit #10-725,Surabaya,Indonesia,2020-08-23,-7.322734,BRANCH_OFFICE,112.838995,279649,East Java,2021-03-26
428,593 Market Rd,Unit #94-454,Manila,Philippines,2023-10-06,14.514554,OTHER,120.945218,407732,Metro Manila,2024-07-22
429,964 Hill Rd,Unit #88-872,Chiang Mai,Thailand,2022-04-09,18.855712,GARAGE,98.942238,107429,Chiang Mai,2022-05-09
430,228 Hill Rd,Unit #22-079,Phuket,Thailand,2022-08-09,8.003228,INSURED_ADDRESS,98.46912,384305,Phuket,2023-06-20
431,635 Park Rd,Unit #67-665,Surabaya,Indonesia,2024-01-01,-7.183564,OTHER,112.654279,487097,East Java,2024-08-17
432,946 Market Rd,Unit #31-255,Phuket,Thailand,2024-01-16,7.810537,ACCIDENT_SITE,98.411966,233535,Phuket,2024-12-16
433,158 Main Rd,Unit #32-082,Penang,Malaysia,2019-05-28,5.49803,INSURED_ADDRESS,100.334702,890526,Penang,2019-11-22
434,320 Beach Rd,Unit #21-808,Kuala Lumpur,Malaysia,2024-01-10,3.084043,GARAGE,101.636098,53787,Kuala Lumpur,2024-01-31
435,61 Main Rd,Unit #17-967,Singapore,Singapore,2022-08-16,1.342047,ACCIDENT_SITE,103.612015,246337,Central,2022-12-09
436,707 Market Rd,Unit #17-757,Manila,Philippines,2022-11-14,14.724393,GARAGE,121.01183,160378,Metro Manila,2023-02-14
437,623 Market Rd,Unit #12-140,Surabaya,Indonesia,2022-03-02,-7.236363,INSURED_ADDRESS,112.812221,958161,East Java,2022-11-11
438,402 Park Rd,Unit #94-837,Penang,Malaysia,2021-02-26,5.330816,INSURED_ADDRESS,100.40121,108671,Penang,2021-08-19
439,609 Park Rd,Unit #36-413,Phuket,Thailand,2019-02-25,7.919681,OTHER,98.338497,914567,Phuket,2019-08-30
440,728 River Rd,Unit #26-406,Jakarta,Indonesia,2021-04-24,-6.17149,OTHER,106.817064,892049,DKI Jakarta,2022-02-08
441,350 Market Rd,Unit #91-646,Penang,Malaysia,2019-04-01,5.421514,GARAGE,100.319901,407498,Penang,2019-09-28
442,282 Hill Rd,Unit #68-644,Phuket,Thailand,2019-03-20,8.041058,GARAGE,98.437216,599271,Phuket,2019-07-31
443,700 Beach Rd,Unit #80-291,Bangkok,Thailand,2020-02-28,13.733487,GARAGE,100.486049,480256,Bangkok,2020-05-12
444,218 Beach Rd,Unit #99-687,Chiang Mai,Thailand,2022-05-21,18.860049,OTHER,98.934492,971802,Chiang Mai,2023-02-05
445,38 River Rd,Unit #97-724,Phuket,Thailand,2021-07-09,8.025438,ACCIDENT_SITE,98.481766,608358,Phuket,2021-10-11
446,772 Hill Rd,Unit #34-795,Singapore,Singapore,2019-05-16,1.372947,ACCIDENT_SITE,103.957874,778019,Central,2020-01-17
447,127 Beach Rd,Unit #81-551,Singapore,Singapore,2021-03-16,1.286774,OTHER,103.695544,230769,Central,2022-03-10
448,799 Main Rd,Unit #88-702,Surabaya,Indonesia,2022-11-15,-7.185145,ACCIDENT_SITE,112.726182,143973,East Java,2023-05-29
449,873 Main Rd,Unit #03-679,Penang,Malaysia,2020-09-04,5.39812,INSURED_ADDRESS,100.209393,782067,Penang,2021-09-27
450,937 River Rd,Unit #28-706,Manila,Philippines,2022-05-14,14.604617,INSURED_ADDRESS,121.092273,575771,Metro Manila,2022-10-01
451,438 Main Rd,Unit #39-602,Jakarta,Indonesia,2022-04-05,-6.200965,ACCIDENT_SITE,106.724137,232232,DKI Jakarta,2022-10-27
452,303 Park Rd,Unit #73-790,Chiang Mai,Thailand,2020-01-07,18.811787,OTHER,98.976953,131567,Chiang Mai,2020-11-18
453,808 Beach Rd,Unit #17-739,Bangkok,Thailand,2021-01-12,13.620488,ACCIDENT_SITE,100.667256,691224,Bangkok,2021-08-22
454,898 Park Rd,Unit #90-078,Penang,Malaysia,2023-07-26,5.453736,OTHER,100.275952,533829,Penang,2023-08-26
455,124 Hill Rd,Unit #50-397,Kuala Lumpur,Malaysia,2023-05-09,3.17175,INSURED_ADDRESS,101.661498,816069,Kuala Lumpur,2023-07-01
456,153 Orchard Rd,Unit #20-130,Surabaya,Indonesia,2022-03-26,-7.157864,ACCIDENT_SITE,112.787103,16950,East Java,2023-03-10
457,335 Main Rd,Unit #09-921,Manila,Philippines,2022-08-11,14.573857,BRANCH_OFFICE,120.937136,561956,Metro Manila,2022-12-02
458,219 Main Rd,Unit #77-815,Manila,Philippines,2022-01-15,14.588132,OTHER,120.992272,901503,Metro Manila,2022-05-09
459,965 Beach Rd,Unit #68-224,Johor Bahru,Malaysia,2022-07-02,1.470674,BRANCH_OFFICE,103.623532,592563,Johor,2023-07-21
460,990 Park Rd,Unit #85-317,Chiang Mai,Thailand,2020-01-11,18.80421,BRANCH_OFFICE,99.045401,378557,Chiang Mai,2020-03-18
461,206 Park Rd,Unit #78-014,Kuala Lumpur,Malaysia,2020-06-17,3.136471,BRANCH_OFFICE,101.672847,900791,Kuala Lumpur,2020-10-03
462,582 Park Rd,Unit #57-163,Jakarta,Indonesia,2024-09-15,-6.097612,GARAGE,106.622854,965432,DKI Jakarta,2025-04-11
463,763 Main Rd,Unit #45-363,Surabaya,Indonesia,2021-12-21,-7.298143,INSURED_ADDRESS,112.77501,298438,East Java,2022-08-14
464,647 Park Rd,Unit #56-211,Kuala Lumpur,Malaysia,2024-12-23,3.131522,INSURED_ADDRESS,101.679131,944126,Kuala Lumpur,2025-08-21
465,482 Market Rd,Unit #56-775,Singapore,Singapore,2023-07-11,1.266432,BRANCH_OFFICE,103.833671,73399,Central,2024-04-16
466,11 Orchard Rd,Unit #16-888,Surabaya,Indonesia,2019-08-25,-7.324141,BRANCH_OFFICE,112.655411,590996,East Java,2020-07-14
467,96 Park Rd,Unit #42-005,Singapore,Singapore,2023-01-03,1.249369,ACCIDENT_SITE,104.033191,316400,Central,2023-05-03
468,269 Beach Rd,Unit #65-465,Surabaya,Indonesia,2022-09-06,-7.265356,BRANCH_OFFICE,112.818016,118332,East Java,2023-02-18
469,853 Market Rd,Unit #73-705,Chiang Mai,Thailand,2022-03-10,18.878541,BRANCH_OFFICE,99.019969,494279,Chiang Mai,2022-12-25
470,823 Beach Rd,Unit #75-094,Penang,Malaysia,2019-02-01,5.464074,ACCIDENT_SITE,100.383828,537163,Penang,2019-07-15
471,102 Hill Rd,Unit #97-423,Penang,Malaysia,2024-01-17,5.359431,BRANCH_OFFICE,100.485777,463275,Penang,2024-10-19
472,962 Park Rd,Unit #49-275,Singapore,Singapore,2019-02-15,1.455387,OTHER,103.913303,417477,Central,2019-12-06
473,986 River Rd,Unit #46-198,Kuala Lumpur,Malaysia,2020-03-15,3.143378,GARAGE,101.641911,848479,Kuala Lumpur,2020-08-02
474,852 Hill Rd,Unit #53-371,Penang,Malaysia,2022-04-25,5.353454,OTHER,100.337738,637675,Penang,2023-02-26
475,916 Main Rd,Unit #87-248,Chiang Mai,Thailand,2024-02-15,18.766351,BRANCH_OFFICE,98.929958,669613,Chiang Mai,2024-05-06
476,798 Market Rd,Unit #13-052,Bangkok,Thailand,2024-08-28,13.696898,OTHER,100.421913,242110,Bangkok,2024-09-23
477,788 Park Rd,Unit #25-254,Chiang Mai,Thailand,2023-03-31,18.878496,ACCIDENT_SITE,99.017932,521837,Chiang Mai,2024-02-14
478,416 Beach Rd,Unit #22-541,Singapore,Singapore,2024-08-08,1.438089,ACCIDENT_SITE,104.097332,371471,Central,2025-08-06
479,951 Park Rd,Unit #86-695,Manila,Philippines,2023-03-12,14.624782,GARAGE,121.021443,696403,Metro Manila,2024-01-30
480,764 Market Rd,Unit #16-463,Phuket,Thailand,2021-03-17,7.977267,INSURED_ADDRESS,98.399336,608302,Phuket,2021-08-22
481,822 Main Rd,Unit #08-805,Phuket,Thailand,2022-01-21,7.971789,ACCIDENT_SITE,98.281683,26401,Phuket,2022-06-16
482,393 Main Rd,Unit #80-949,Johor Bahru,Malaysia,2022-02-05,1.474612,GARAGE,103.659021,883673,Johor,2022-08-31
483,703 Main Rd,Unit #84-290,Manila,Philippines,2020-04-20,14.648162,INSURED_ADDRESS,120.934037,608138,Metro Manila,2021-03-25
484,105 Market Rd,Unit #52-849,Jakarta,Indonesia,2020-07-16,-6.281509,OTHER,106.725858,814784,DKI Jakarta,2020-11-14
485,284 Orchard Rd,Unit #56-355,Kuala Lumpur,Malaysia,2020-07-17,3.106731,GARAGE,101.665488,938370,Kuala Lumpur,2021-01-19
486,802 Market Rd,Unit #59-387,Surabaya,Indonesia,2023-06-25,-7.293489,OTHER,112.773361,446363,East Java,2023-10-14
487,83 River Rd,Unit #09-909,Jakarta,Indonesia,2020-07-27,-6.11001,OTHER,106.817997,865646,DKI Jakarta,2021-04-27
488,778 Main Rd,Unit #37-582,Penang,Malaysia,2021-02-23,5.394116,OTHER,100.333685,611822,Penang,2021-06-07
489,550 Main Rd,Unit #69-995,Johor Bahru,Malaysia,2021-05-22,1.515628,OTHER,103.625759,244048,Johor,2022-04-07
490,202 River Rd,Unit #72-673,Kuala Lumpur,Malaysia,2019-11-02,3.245424,GARAGE,101.73472,204942,Kuala Lumpur,2020-05-11
491,713 Market Rd,Unit #73-562,Manila,Philippines,2024-07-31,14.575155,BRANCH_OFFICE,121.089443,502850,Metro Manila,2024-09-09
492,609 Main Rd,Unit #61-059,Bangkok,Thailand,2024-03-14,13.753031,ACCIDENT_SITE,100.349879,267667,Bangkok,2024-09-28
493,450 Hill Rd,Unit #41-549,Penang,Malaysia,2022-07-12,5.355042,INSURED_ADDRESS,100.448109,430978,Penang,2022-11-06
494,305 Park Rd,Unit #56-129,Surabaya,Indonesia,2020-07-09,-7.243585,BRANCH_OFFICE,112.75331,391843,East Java,2021-02-03
495,269 Market Rd,Unit #40-620,Johor Bahru,Malaysia,2023-08-24,1.509153,GARAGE,103.652919,755804,Johor,2024-09-08
496,272 Orchard Rd,Unit #97-235,Manila,Philippines,2022-07-27,14.54564,BRANCH_OFFICE,121.02499,212927,Metro Manila,2023-07-29
497,153 River Rd,Unit #70-734,Surabaya,Indonesia,2019-04-20,-7.22222,ACCIDENT_SITE,112.868537,10271,East Java,2020-01-24
498,634 Hill Rd,Unit #57-181,Surabaya,Indonesia,2019-06-26,-7.199389,INSURED_ADDRESS,112.691098,419811,East Java,2019-12-04
499,218 Hill Rd,Unit #15-442,Johor Bahru,Malaysia,2022-02-15,1.455238,GARAGE,103.793403,383685,Johor,2022-12-16
500,670 Orchard Rd,Unit #17-603,Bangkok,Thailand,2023-07-20,13.846346,OTHER,100.690215,348875,Bangkok,2024-01-19
